{
  "links" : {
    "next" : "https://api.nasa.gov/neo/rest/v1/feed?start_date=2009-03-23&end_date=2009-03-23&detailed=true&api_key=t0TVs3DtDT2H8Oy2Zy8m2eVrNsAVKAexjcZXUckd",
    "prev" : "https://api.nasa.gov/neo/rest/v1/feed?start_date=2009-03-21&end_date=2009-03-21&detailed=true&api_key=t0TVs3DtDT2H8Oy2Zy8m2eVrNsAVKAexjcZXUckd",
    "self" : "https://api.nasa.gov/neo/rest/v1/feed?start_date=2009-03-22&end_date=2009-03-22&detailed=true&api_key=t0TVs3DtDT2H8Oy2Zy8m2eVrNsAVKAexjcZXUckd"
  },
  "element_count" : 8,
  "near_earth_objects" : {
    "2009-03-22" : [ {
      "links" : {
        "self" : "https://api.nasa.gov/neo/rest/v1/neo/3455135?api_key=t0TVs3DtDT2H8Oy2Zy8m2eVrNsAVKAexjcZXUckd"
      },
      "neo_reference_id" : "3455135",
      "name" : "(2009 FS23)",
      "nasa_jpl_url" : "http://ssd.jpl.nasa.gov/sbdb.cgi?sstr=3455135",
      "absolute_magnitude_h" : 25.3,
      "estimated_diameter" : {
        "kilometers" : {
          "estimated_diameter_min" : 0.0231502122,
          "estimated_diameter_max" : 0.0517654482
        },
        "meters" : {
          "estimated_diameter_min" : 23.150212221,
          "estimated_diameter_max" : 51.7654482198
        },
        "miles" : {
          "estimated_diameter_min" : 0.0143848705,
          "estimated_diameter_max" : 0.0321655483
        },
        "feet" : {
          "estimated_diameter_min" : 75.9521422633,
          "estimated_diameter_max" : 169.8341531374
        }
      },
      "is_potentially_hazardous_asteroid" : false,
      "close_approach_data" : [ {
        "close_approach_date" : "2009-03-22",
        "epoch_date_close_approach" : 1237705200000,
        "relative_velocity" : {
          "kilometers_per_second" : "8.1631661171",
          "kilometers_per_hour" : "29387.3980216543",
          "miles_per_hour" : "18260.1862873996"
        },
        "miss_distance" : {
          "astronomical" : "0.058690795",
          "lunar" : "22.8307189941",
          "kilometers" : "8780018",
          "miles" : "5455650"
        },
        "orbiting_body" : "Earth"
      } ],
      "orbital_data" : {
        "orbit_id" : "8",
        "orbit_determination_date" : "2017-04-06 09:00:55",
        "orbit_uncertainty" : "8",
        "minimum_orbit_intersection" : ".0586828",
        "jupiter_tisserand_invariant" : "3.623",
        "epoch_osculation" : "2454916.5",
        "eccentricity" : ".4844407533814064",
        "semi_major_axis" : "2.044154664456928",
        "inclination" : "10.75730326659217",
        "ascending_node_longitude" : "182.8890450533731",
        "orbital_period" : "1067.50287955296",
        "perihelion_distance" : "1.053882838779298",
        "perihelion_argument" : "354.0606929770434",
        "aphelion_distance" : "3.034426490134559",
        "perihelion_time" : "2454908.619588049939",
        "mean_anomaly" : "2.657555643512636",
        "mean_motion" : ".337235624273686",
        "equinox" : "J2000"
      }
    }, {
      "links" : {
        "self" : "https://api.nasa.gov/neo/rest/v1/neo/2299582?api_key=t0TVs3DtDT2H8Oy2Zy8m2eVrNsAVKAexjcZXUckd"
      },
      "neo_reference_id" : "2299582",
      "name" : "299582 (2006 GQ2)",
      "nasa_jpl_url" : "http://ssd.jpl.nasa.gov/sbdb.cgi?sstr=2299582",
      "absolute_magnitude_h" : 18.0,
      "estimated_diameter" : {
        "kilometers" : {
          "estimated_diameter_min" : 0.6676594135,
          "estimated_diameter_max" : 1.4929318344
        },
        "meters" : {
          "estimated_diameter_min" : 667.6594134952,
          "estimated_diameter_max" : 1492.931834393
        },
        "miles" : {
          "estimated_diameter_min" : 0.4148641974,
          "estimated_diameter_max" : 0.9276645469
        },
        "feet" : {
          "estimated_diameter_min" : 2190.4837101717,
          "estimated_diameter_max" : 4898.07047955
        }
      },
      "is_potentially_hazardous_asteroid" : false,
      "close_approach_data" : [ {
        "close_approach_date" : "2009-03-22",
        "epoch_date_close_approach" : 1237705200000,
        "relative_velocity" : {
          "kilometers_per_second" : "14.1472529164",
          "kilometers_per_hour" : "50930.1104989234",
          "miles_per_hour" : "31645.9900486227"
        },
        "miss_distance" : {
          "astronomical" : "0.3513336624",
          "lunar" : "136.6687927246",
          "kilometers" : "52558768",
          "miles" : "32658504"
        },
        "orbiting_body" : "Earth"
      } ],
      "orbital_data" : {
        "orbit_id" : "51",
        "orbit_determination_date" : "2017-09-03 06:20:36",
        "orbit_uncertainty" : "0",
        "minimum_orbit_intersection" : ".125466",
        "jupiter_tisserand_invariant" : "4.825",
        "epoch_osculation" : "2458000.5",
        "eccentricity" : ".4657800545694917",
        "semi_major_axis" : "1.29053397612119",
        "inclination" : "25.84253227599533",
        "ascending_node_longitude" : "13.93183410104399",
        "orbital_period" : "535.4915117006888",
        "perihelion_distance" : ".6894289902996792",
        "perihelion_argument" : "64.48220906338129",
        "aphelion_distance" : "1.891638961942701",
        "perihelion_time" : "2458035.945967411320",
        "mean_anomaly" : "336.1704004839435",
        "mean_motion" : ".6722795639778896",
        "equinox" : "J2000"
      }
    }, {
      "links" : {
        "self" : "https://api.nasa.gov/neo/rest/v1/neo/3177232?api_key=t0TVs3DtDT2H8Oy2Zy8m2eVrNsAVKAexjcZXUckd"
      },
      "neo_reference_id" : "3177232",
      "name" : "(2004 FG29)",
      "nasa_jpl_url" : "http://ssd.jpl.nasa.gov/sbdb.cgi?sstr=3177232",
      "absolute_magnitude_h" : 26.0,
      "estimated_diameter" : {
        "kilometers" : {
          "estimated_diameter_min" : 0.0167708462,
          "estimated_diameter_max" : 0.0375007522
        },
        "meters" : {
          "estimated_diameter_min" : 16.7708462163,
          "estimated_diameter_max" : 37.5007521798
        },
        "miles" : {
          "estimated_diameter_min" : 0.0104209175,
          "estimated_diameter_max" : 0.0233018799
        },
        "feet" : {
          "estimated_diameter_min" : 55.0224631002,
          "estimated_diameter_max" : 123.0339677816
        }
      },
      "is_potentially_hazardous_asteroid" : false,
      "close_approach_data" : [ {
        "close_approach_date" : "2009-03-22",
        "epoch_date_close_approach" : 1237705200000,
        "relative_velocity" : {
          "kilometers_per_second" : "25.3905559151",
          "kilometers_per_hour" : "91406.0012944691",
          "miles_per_hour" : "56796.134526555"
        },
        "miss_distance" : {
          "astronomical" : "0.3318297112",
          "lunar" : "129.0817565918",
          "kilometers" : "49641016",
          "miles" : "30845498"
        },
        "orbiting_body" : "Earth"
      } ],
      "orbital_data" : {
        "orbit_id" : "8",
        "orbit_determination_date" : "2017-04-06 09:12:59",
        "orbit_uncertainty" : "6",
        "minimum_orbit_intersection" : ".010158",
        "jupiter_tisserand_invariant" : "6.636",
        "epoch_osculation" : "2458000.5",
        "eccentricity" : ".4925114066738209",
        "semi_major_axis" : ".8786153704335991",
        "inclination" : "3.509213057777882",
        "ascending_node_longitude" : "183.2006628650848",
        "orbital_period" : "300.813014370986",
        "perihelion_distance" : ".445887278416107",
        "perihelion_argument" : "142.2175296688837",
        "aphelion_distance" : "1.311343462451091",
        "perihelion_time" : "2457976.421802461408",
        "mean_anomaly" : "28.81574499700018",
        "mean_motion" : "1.196756731927895",
        "equinox" : "J2000"
      }
    } ]
  }
}